STARLINK-37123          
1 68275U 26055P   26085.91668981 -.00903577  27848-3 -16555-2 0  9994
2 68275  53.1589 251.4529 0000651  55.0389 154.8754 16.00627946  2402
STARLINK-37125          
1 68276U 26055Q   26085.91668981 -.00906847  28083-3 -16448-2 0  9991
2 68276  53.1588 251.4469 0000677  49.7945 163.0879 16.00802920  2408
STARLINK-36989          
1 68277U 26055R   26085.91668981 -.00897261  27682-3 -15866-2 0  9998
2 68277  53.1588 251.4314 0000564  61.9861 158.4429 16.01238869  2401
STARLINK-36982          
1 68278U 26055S   26085.91668981 -.00903037  27963-3 -16093-2 0  9993
2 68278  53.1589 251.4367 0000579  52.5207 165.5786 16.01105637  2408
STARLINK-36934          
1 68279U 26055T   26085.91668981 -.00915595  28627-3 -16445-2 0  9995
2 68279  53.1588 251.4414 0000664  53.2770 162.4676 16.00973462  2401
STARLINK-37070          
1 68280U 26055U   26085.91668981 -.00900664  27925-3 -15768-2 0  9995
2 68280  53.1589 251.4254 0000587  61.0747 162.2244 16.01411029  2407
STARLINK-37134          
1 68281U 26055V   26085.91668981 -.00895949  27755-3 -15407-2 0  9996
2 68281  53.1586 251.4149 0000560  51.9939 176.4115 16.01716453  2403
STARLINK-37160          
1 68282U 26055W   26085.91668981 -.00898370  27846-3 -15581-2 0  9992
2 68282  53.1588 251.4205 0000548  53.5481 172.4297 16.01571774  2407
STARLINK-37124          
1 68283U 26055X   26085.91668981 -.00892278  27589-3 -15233-2 0  9992
2 68283  53.1588 251.4109 0000577  54.5007 176.0115 16.01839905  2400
STARLINK-37159          
1 68284U 26055Y   26085.91668981 -.00890612  27544-3 -15063-2 0  9995
2 68284  53.1587 251.4054 0000625  56.5373 176.5708 16.01998826  2402
STARLINK-36725          
1 68285U 26055Z   26085.91668981 -.00886743  27367-3 -14888-2 0  9993
2 68285  53.1584 251.4009 0000545  53.4690 181.6934 16.02122869  2404
STARLINK-36998          
1 68286U 26055AA  26085.91668981 -.00920001  29355-3 -15148-2 0  9999
2 68286  53.1592 251.3913 0000481  58.8105 181.5250 16.02459637  2402
