CCSDS_OMM_VERS = 2.0
CREATION_DATE  = 
ORIGINATOR     = 

OBJECT_NAME    = STARLINK-37123
OBJECT_ID      = 2026-055P
CENTER_NAME    = EARTH
REF_FRAME      = TEME
TIME_SYSTEM    = UTC
MEAN_ELEMENT_THEORY = SGP/SGP4

EPOCH          = 2026-03-26T22:00:01.999584
MEAN_MOTION    = 16.00627946
ECCENTRICITY   = .00006518
INCLINATION    = 53.1589
RA_OF_ASC_NODE = 251.4529
ARG_OF_PERICENTER = 55.0389
MEAN_ANOMALY   = 154.8754

EPHEMERIS_TYPE = 0
CLASSIFICATION_TYPE = U
NORAD_CAT_ID   = 68275
ELEMENT_SET_NO = 999
REV_AT_EPOCH   = 240
BSTAR          = -.16554658E-2
MEAN_MOTION_DOT = -.903577E-2
MEAN_MOTION_DDOT = .27847698E-3

CCSDS_OMM_VERS = 2.0
CREATION_DATE  = 
ORIGINATOR     = 

OBJECT_NAME    = STARLINK-37125
OBJECT_ID      = 2026-055Q
CENTER_NAME    = EARTH
REF_FRAME      = TEME
TIME_SYSTEM    = UTC
MEAN_ELEMENT_THEORY = SGP/SGP4

EPOCH          = 2026-03-26T22:00:01.999584
MEAN_MOTION    = 16.00802920
ECCENTRICITY   = .00006778
INCLINATION    = 53.1588
RA_OF_ASC_NODE = 251.4469
ARG_OF_PERICENTER = 49.7945
MEAN_ANOMALY   = 163.0879

EPHEMERIS_TYPE = 0
CLASSIFICATION_TYPE = U
NORAD_CAT_ID   = 68276
ELEMENT_SET_NO = 999
REV_AT_EPOCH   = 240
BSTAR          = -.16448014E-2
MEAN_MOTION_DOT = -.906847E-2
MEAN_MOTION_DDOT = .28083179E-3

CCSDS_OMM_VERS = 2.0
CREATION_DATE  = 
ORIGINATOR     = 

OBJECT_NAME    = STARLINK-36989
OBJECT_ID      = 2026-055R
CENTER_NAME    = EARTH
REF_FRAME      = TEME
TIME_SYSTEM    = UTC
MEAN_ELEMENT_THEORY = SGP/SGP4

EPOCH          = 2026-03-26T22:00:01.999584
MEAN_MOTION    = 16.01238869
ECCENTRICITY   = .00005648
INCLINATION    = 53.1588
RA_OF_ASC_NODE = 251.4314
ARG_OF_PERICENTER = 61.9861
MEAN_ANOMALY   = 158.4429

EPHEMERIS_TYPE = 0
CLASSIFICATION_TYPE = U
NORAD_CAT_ID   = 68277
ELEMENT_SET_NO = 999
REV_AT_EPOCH   = 240
BSTAR          = -.1586615E-2
MEAN_MOTION_DOT = -.897261E-2
MEAN_MOTION_DDOT = .27682394E-3

CCSDS_OMM_VERS = 2.0
CREATION_DATE  = 
ORIGINATOR     = 

OBJECT_NAME    = STARLINK-36982
OBJECT_ID      = 2026-055S
CENTER_NAME    = EARTH
REF_FRAME      = TEME
TIME_SYSTEM    = UTC
MEAN_ELEMENT_THEORY = SGP/SGP4

EPOCH          = 2026-03-26T22:00:01.999584
MEAN_MOTION    = 16.01105637
ECCENTRICITY   = .00005795
INCLINATION    = 53.1589
RA_OF_ASC_NODE = 251.4367
ARG_OF_PERICENTER = 52.5207
MEAN_ANOMALY   = 165.5786

EPHEMERIS_TYPE = 0
CLASSIFICATION_TYPE = U
NORAD_CAT_ID   = 68278
ELEMENT_SET_NO = 999
REV_AT_EPOCH   = 240
BSTAR          = -.16093484E-2
MEAN_MOTION_DOT = -.903037E-2
MEAN_MOTION_DDOT = .27963434E-3

CCSDS_OMM_VERS = 2.0
CREATION_DATE  = 
ORIGINATOR     = 

OBJECT_NAME    = STARLINK-36934
OBJECT_ID      = 2026-055T
CENTER_NAME    = EARTH
REF_FRAME      = TEME
TIME_SYSTEM    = UTC
MEAN_ELEMENT_THEORY = SGP/SGP4

EPOCH          = 2026-03-26T22:00:01.999584
MEAN_MOTION    = 16.00973462
ECCENTRICITY   = .00006644
INCLINATION    = 53.1588
RA_OF_ASC_NODE = 251.4414
ARG_OF_PERICENTER = 53.2770
MEAN_ANOMALY   = 162.4676

EPHEMERIS_TYPE = 0
CLASSIFICATION_TYPE = U
NORAD_CAT_ID   = 68279
ELEMENT_SET_NO = 999
REV_AT_EPOCH   = 240
BSTAR          = -.1644516E-2
MEAN_MOTION_DOT = -.915595E-2
MEAN_MOTION_DDOT = .28626946E-3

CCSDS_OMM_VERS = 2.0
CREATION_DATE  = 
ORIGINATOR     = 

OBJECT_NAME    = STARLINK-37070
OBJECT_ID      = 2026-055U
CENTER_NAME    = EARTH
REF_FRAME      = TEME
TIME_SYSTEM    = UTC
MEAN_ELEMENT_THEORY = SGP/SGP4

EPOCH          = 2026-03-26T22:00:01.999584
MEAN_MOTION    = 16.01411029
ECCENTRICITY   = .00005871
INCLINATION    = 53.1589
RA_OF_ASC_NODE = 251.4254
ARG_OF_PERICENTER = 61.0747
MEAN_ANOMALY   = 162.2244

EPHEMERIS_TYPE = 0
CLASSIFICATION_TYPE = U
NORAD_CAT_ID   = 68280
ELEMENT_SET_NO = 999
REV_AT_EPOCH   = 240
BSTAR          = -.15768032E-2
MEAN_MOTION_DOT = -.900664E-2
MEAN_MOTION_DDOT = .27924751E-3

CCSDS_OMM_VERS = 2.0
CREATION_DATE  = 
ORIGINATOR     = 

OBJECT_NAME    = STARLINK-37134
OBJECT_ID      = 2026-055V
CENTER_NAME    = EARTH
REF_FRAME      = TEME
TIME_SYSTEM    = UTC
MEAN_ELEMENT_THEORY = SGP/SGP4

EPOCH          = 2026-03-26T22:00:01.999584
MEAN_MOTION    = 16.01716453
ECCENTRICITY   = .00005608
INCLINATION    = 53.1586
RA_OF_ASC_NODE = 251.4149
ARG_OF_PERICENTER = 51.9939
MEAN_ANOMALY   = 176.4115

EPHEMERIS_TYPE = 0
CLASSIFICATION_TYPE = U
NORAD_CAT_ID   = 68281
ELEMENT_SET_NO = 999
REV_AT_EPOCH   = 240
BSTAR          = -.15407279E-2
MEAN_MOTION_DOT = -.895949E-2
MEAN_MOTION_DDOT = .27755374E-3

CCSDS_OMM_VERS = 2.0
CREATION_DATE  = 
ORIGINATOR     = 

OBJECT_NAME    = STARLINK-37160
OBJECT_ID      = 2026-055W
CENTER_NAME    = EARTH
REF_FRAME      = TEME
TIME_SYSTEM    = UTC
MEAN_ELEMENT_THEORY = SGP/SGP4

EPOCH          = 2026-03-26T22:00:01.999584
MEAN_MOTION    = 16.01571774
ECCENTRICITY   = .00005486
INCLINATION    = 53.1588
RA_OF_ASC_NODE = 251.4205
ARG_OF_PERICENTER = 53.5481
MEAN_ANOMALY   = 172.4297

EPHEMERIS_TYPE = 0
CLASSIFICATION_TYPE = U
NORAD_CAT_ID   = 68282
ELEMENT_SET_NO = 999
REV_AT_EPOCH   = 240
BSTAR          = -.15580634E-2
MEAN_MOTION_DOT = -.89837E-2
MEAN_MOTION_DDOT = .27846064E-3

CCSDS_OMM_VERS = 2.0
CREATION_DATE  = 
ORIGINATOR     = 

OBJECT_NAME    = STARLINK-37124
OBJECT_ID      = 2026-055X
CENTER_NAME    = EARTH
REF_FRAME      = TEME
TIME_SYSTEM    = UTC
MEAN_ELEMENT_THEORY = SGP/SGP4

EPOCH          = 2026-03-26T22:00:01.999584
MEAN_MOTION    = 16.01839905
ECCENTRICITY   = .00005771
INCLINATION    = 53.1588
RA_OF_ASC_NODE = 251.4109
ARG_OF_PERICENTER = 54.5007
MEAN_ANOMALY   = 176.0115

EPHEMERIS_TYPE = 0
CLASSIFICATION_TYPE = U
NORAD_CAT_ID   = 68283
ELEMENT_SET_NO = 999
REV_AT_EPOCH   = 240
BSTAR          = -.15232903E-2
MEAN_MOTION_DOT = -.892278E-2
MEAN_MOTION_DDOT = .27588519E-3

CCSDS_OMM_VERS = 2.0
CREATION_DATE  = 
ORIGINATOR     = 

OBJECT_NAME    = STARLINK-37159
OBJECT_ID      = 2026-055Y
CENTER_NAME    = EARTH
REF_FRAME      = TEME
TIME_SYSTEM    = UTC
MEAN_ELEMENT_THEORY = SGP/SGP4

EPOCH          = 2026-03-26T22:00:01.999584
MEAN_MOTION    = 16.01998826
ECCENTRICITY   = .00006252
INCLINATION    = 53.1587
RA_OF_ASC_NODE = 251.4054
ARG_OF_PERICENTER = 56.5373
MEAN_ANOMALY   = 176.5708

EPHEMERIS_TYPE = 0
CLASSIFICATION_TYPE = U
NORAD_CAT_ID   = 68284
ELEMENT_SET_NO = 999
REV_AT_EPOCH   = 240
BSTAR          = -.15062932E-2
MEAN_MOTION_DOT = -.890612E-2
MEAN_MOTION_DDOT = .27544317E-3

CCSDS_OMM_VERS = 2.0
CREATION_DATE  = 
ORIGINATOR     = 

OBJECT_NAME    = STARLINK-36725
OBJECT_ID      = 2026-055Z
CENTER_NAME    = EARTH
REF_FRAME      = TEME
TIME_SYSTEM    = UTC
MEAN_ELEMENT_THEORY = SGP/SGP4

EPOCH          = 2026-03-26T22:00:01.999584
MEAN_MOTION    = 16.02122869
ECCENTRICITY   = .00005451
INCLINATION    = 53.1584
RA_OF_ASC_NODE = 251.4009
ARG_OF_PERICENTER = 53.4690
MEAN_ANOMALY   = 181.6934

EPHEMERIS_TYPE = 0
CLASSIFICATION_TYPE = U
NORAD_CAT_ID   = 68285
ELEMENT_SET_NO = 999
REV_AT_EPOCH   = 240
BSTAR          = -.14887902E-2
MEAN_MOTION_DOT = -.886743E-2
MEAN_MOTION_DDOT = .27366906E-3

CCSDS_OMM_VERS = 2.0
CREATION_DATE  = 
ORIGINATOR     = 

OBJECT_NAME    = STARLINK-36998
OBJECT_ID      = 2026-055AA
CENTER_NAME    = EARTH
REF_FRAME      = TEME
TIME_SYSTEM    = UTC
MEAN_ELEMENT_THEORY = SGP/SGP4

EPOCH          = 2026-03-26T22:00:01.999584
MEAN_MOTION    = 16.02459637
ECCENTRICITY   = .00004813
INCLINATION    = 53.1592
RA_OF_ASC_NODE = 251.3913
ARG_OF_PERICENTER = 58.8105
MEAN_ANOMALY   = 181.5250

EPHEMERIS_TYPE = 0
CLASSIFICATION_TYPE = U
NORAD_CAT_ID   = 68286
ELEMENT_SET_NO = 999
REV_AT_EPOCH   = 240
BSTAR          = -.1514844E-2
MEAN_MOTION_DOT = -.920001E-2
MEAN_MOTION_DDOT = .29354705E-3

